[{"OBJECT_NAME":"ONEWEB-0056","OBJECT_ID":"2020-008AE","EPOCH":"2026-01-09T03:55:41.417184","MEAN_MOTION":13.10370727,"ECCENTRICITY":0.00018216,"INCLINATION":87.8779,"RA_OF_ASC_NODE":67.9616,"ARG_OF_PERICENTER":107.2938,"MEAN_ANOMALY":252.8389,"EPHEMERIS_TYPE":0,"CLASSIFICATION_TYPE":"U","NORAD_CAT_ID":45159,"ELEMENT_SET_NO":999,"REV_AT_EPOCH":28735,"BSTAR":0.00020613824,"MEAN_MOTION_DOT":8.5e-7,"MEAN_MOTION_DDOT":0},{"OBJECT_NAME":"ONEWEB-0057","OBJECT_ID":"2020-008AF","EPOCH":"2026-01-09T04:06:38.118528","MEAN_MOTION":13.10369576,"ECCENTRICITY":0.0002011,"INCLINATION":87.8775,"RA_OF_ASC_NODE":67.9724,"ARG_OF_PERICENTER":100.7761,"MEAN_ANOMALY":259.3592,"EPHEMERIS_TYPE":0,"CLASSIFICATION_TYPE":"U","NORAD_CAT_ID":45160,"ELEMENT_SET_NO":999,"REV_AT_EPOCH":28752,"BSTAR":-0.00096321659,"MEAN_MOTION_DOT":-3.24e-6,"MEAN_MOTION_DDOT":0},{"OBJECT_NAME":"ONEWEB-0058","OBJECT_ID":"2020-008AG","EPOCH":"2026-01-09T03:47:32.800128","MEAN_MOTION":13.10370964,"ECCENTRICITY":0.00015028,"INCLINATION":87.8774,"RA_OF_ASC_NODE":67.9849,"ARG_OF_PERICENTER":97.6644,"MEAN_ANOMALY":262.4654,"EPHEMERIS_TYPE":0,"CLASSIFICATION_TYPE":"U","NORAD_CAT_ID":45161,"ELEMENT_SET_NO":999,"REV_AT_EPOCH":28759,"BSTAR":0.0010397337,"MEAN_MOTION_DOT":3.76e-6,"MEAN_MOTION_DDOT":0},{"OBJECT_NAME":"ONEWEB-0059","OBJECT_ID":"2020-008AH","EPOCH":"2026-01-09T05:32:30.113376","MEAN_MOTION":13.10378673,"ECCENTRICITY":0.00016747,"INCLINATION":87.8773,"RA_OF_ASC_NODE":67.971,"ARG_OF_PERICENTER":99.8239,"MEAN_ANOMALY":260.3077,"EPHEMERIS_TYPE":0,"CLASSIFICATION_TYPE":"U","NORAD_CAT_ID":45162,"ELEMENT_SET_NO":999,"REV_AT_EPOCH":28750,"BSTAR":0.0050408144,"MEAN_MOTION_DOT":1.773e-5,"MEAN_MOTION_DDOT":0},{"OBJECT_NAME":"ONEWEB-0062","OBJECT_ID":"2020-008AJ","EPOCH":"2026-01-09T02:29:37.643424","MEAN_MOTION":13.10372117,"ECCENTRICITY":0.00013268,"INCLINATION":87.8786,"RA_OF_ASC_NODE":67.9737,"ARG_OF_PERICENTER":98.3097,"MEAN_ANOMALY":261.8181,"EPHEMERIS_TYPE":0,"CLASSIFICATION_TYPE":"U","NORAD_CAT_ID":45163,"ELEMENT_SET_NO":999,"REV_AT_EPOCH":28735,"BSTAR":-0.0017179241,"MEAN_MOTION_DOT":-5.87e-6,"MEAN_MOTION_DDOT":0},{"OBJECT_NAME":"ONEWEB-0065","OBJECT_ID":"2020-008AK","EPOCH":"2026-01-09T05:03:37.329408","MEAN_MOTION":13.10375139,"ECCENTRICITY":0.00021154,"INCLINATION":87.8782,"RA_OF_ASC_NODE":67.9661,"ARG_OF_PERICENTER":105.6112,"MEAN_ANOMALY":254.5249,"EPHEMERIS_TYPE":0,"CLASSIFICATION_TYPE":"U","NORAD_CAT_ID":45164,"ELEMENT_SET_NO":999,"REV_AT_EPOCH":28706,"BSTAR":0.0010609709,"MEAN_MOTION_DOT":3.83e-6,"MEAN_MOTION_DDOT":0},{"OBJECT_NAME":"ONEWEB-0066","OBJECT_ID":"2020-020A","EPOCH":"2026-01-09T03:27:40.965696","MEAN_MOTION":13.1140874,"ECCENTRICITY":0.00019841,"INCLINATION":87.8838,"RA_OF_ASC_NODE":52.7283,"ARG_OF_PERICENTER":91.9451,"MEAN_ANOMALY":268.1904,"EPHEMERIS_TYPE":0,"CLASSIFICATION_TYPE":"U","NORAD_CAT_ID":45424,"ELEMENT_SET_NO":999,"REV_AT_EPOCH":28183,"BSTAR":-0.0049648033,"MEAN_MOTION_DOT":-1.746e-5,"MEAN_MOTION_DDOT":0},{"OBJECT_NAME":"ONEWEB-0067","OBJECT_ID":"2020-020B","EPOCH":"2026-01-09T02:31:45.010848","MEAN_MOTION":13.11416657,"ECCENTRICITY":0.00019928,"INCLINATION":87.884,"RA_OF_ASC_NODE":52.6406,"ARG_OF_PERICENTER":95.5627,"MEAN_ANOMALY":264.5728,"EPHEMERIS_TYPE":0,"CLASSIFICATION_TYPE":"U","NORAD_CAT_ID":45425,"ELEMENT_SET_NO":999,"REV_AT_EPOCH":28188,"BSTAR":0.0015025983,"MEAN_MOTION_DOT":5.45e-6,"MEAN_MOTION_DDOT":0},{"OBJECT_NAME":"ONEWEB-0080","OBJECT_ID":"2020-020C","EPOCH":"2026-01-09T02:44:58.831584","MEAN_MOTION":13.11415737,"ECCENTRICITY":0.00015547,"INCLINATION":87.8829,"RA_OF_ASC_NODE":52.7337,"ARG_OF_PERICENTER":89.3643,"MEAN_ANOMALY":270.7663,"EPHEMERIS_TYPE":0,"CLASSIFICATION_TYPE":"U","NORAD_CAT_ID":45426,"ELEMENT_SET_NO":999,"REV_AT_EPOCH":28185,"BSTAR":0.00095780599,"MEAN_MOTION_DOT":3.52e-6,"MEAN_MOTION_DDOT":0},{"OBJECT_NAME":"ONEWEB-0090","OBJECT_ID":"2020-020D","EPOCH":"2026-01-09T03:13:13.980576","MEAN_MOTION":13.11415544,"ECCENTRICITY":0.00017606,"INCLINATION":87.883,"RA_OF_ASC_NODE":52.7318,"ARG_OF_PERICENTER":97.7206,"MEAN_ANOMALY":262.4122,"EPHEMERIS_TYPE":0,"CLASSIFICATION_TYPE":"U","NORAD_CAT_ID":45427,"ELEMENT_SET_NO":999,"REV_AT_EPOCH":28182,"BSTAR":-0.0010684821,"MEAN_MOTION_DOT":-3.66e-6,"MEAN_MOTION_DDOT":0},{"OBJECT_NAME":"ONEWEB-0061","OBJECT_ID":"2020-020E","EPOCH":"2026-01-09T03:59:13.784928","MEAN_MOTION":13.11418866,"ECCENTRICITY":0.00017794,"INCLINATION":87.8838,"RA_OF_ASC_NODE":52.7078,"ARG_OF_PERICENTER":96.2567,"MEAN_ANOMALY":263.8764,"EPHEMERIS_TYPE":0,"CLASSIFICATION_TYPE":"U","NORAD_CAT_ID":45428,"ELEMENT_SET_NO":999,"REV_AT_EPOCH":28178,"BSTAR":0.00054513517,"MEAN_MOTION_DOT":2.06e-6,"MEAN_MOTION_DDOT":0},{"OBJECT_NAME":"ONEWEB-0081","OBJECT_ID":"2020-020F","EPOCH":"2026-01-09T03:32:32.917344","MEAN_MOTION":13.11418063,"ECCENTRICITY":0.00019555,"INCLINATION":87.8836,"RA_OF_ASC_NODE":52.727,"ARG_OF_PERICENTER":92.5908,"MEAN_ANOMALY":267.5444,"EPHEMERIS_TYPE":0,"CLASSIFICATION_TYPE":"U","NORAD_CAT_ID":45429,"ELEMENT_SET_NO":999,"REV_AT_EPOCH":28189,"BSTAR":-0.002002166,"MEAN_MOTION_DOT":-6.97e-6,"MEAN_MOTION_DDOT":0},{"OBJECT_NAME":"ONEWEB-0069","OBJECT_ID":"2020-020G","EPOCH":"2026-01-09T03:16:40.948320","MEAN_MOTION":13.11416836,"ECCENTRICITY":0.00018284,"INCLINATION":87.8832,"RA_OF_ASC_NODE":52.7253,"ARG_OF_PERICENTER":95.6521,"MEAN_ANOMALY":264.4816,"EPHEMERIS_TYPE":0,"CLASSIFICATION_TYPE":"U","NORAD_CAT_ID":45430,"ELEMENT_SET_NO":999,"REV_AT_EPOCH":28182,"BSTAR":-0.0014997683,"MEAN_MOTION_DOT":-5.19e-6,"MEAN_MOTION_DDOT":0},{"OBJECT_NAME":"ONEWEB-0031","OBJECT_ID":"2020-020H","EPOCH":"2026-01-09T02:36:25.573248","MEAN_MOTION":13.11416401,"ECCENTRICITY":0.0001577,"INCLINATION":87.8825,"RA_OF_ASC_NODE":52.7528,"ARG_OF_PERICENTER":98.0583,"MEAN_ANOMALY":262.0724,"EPHEMERIS_TYPE":0,"CLASSIFICATION_TYPE":"U","NORAD_CAT_ID":45431,"ELEMENT_SET_NO":999,"REV_AT_EPOCH":28180,"BSTAR":0.0015093732,"MEAN_MOTION_DOT":5.48e-6,"MEAN_MOTION_DDOT":0},{"OBJECT_NAME":"ONEWEB-0027","OBJECT_ID":"2020-020J","EPOCH":"2026-01-09T07:05:34.598976","MEAN_MOTION":13.17649003,"ECCENTRICITY":0.00015417,"INCLINATION":87.9095,"RA_OF_ASC_NODE":37.4244,"ARG_OF_PERICENTER":105.6341,"MEAN_ANOMALY":254.4961,"EPHEMERIS_TYPE":0,"CLASSIFICATION_TYPE":"U","NORAD_CAT_ID":45432,"ELEMENT_SET_NO":999,"REV_AT_EPOCH":28543,"BSTAR":-3.7073755e-5,"MEAN_MOTION_DOT":-2.0e-8,"MEAN_MOTION_DDOT":0},{"OBJECT_NAME":"ONEWEB-0064","OBJECT_ID":"2020-020K","EPOCH":"2026-01-09T02:33:59.177088","MEAN_MOTION":13.11416838,"ECCENTRICITY":0.00016298,"INCLINATION":87.8826,"RA_OF_ASC_NODE":52.7431,"ARG_OF_PERICENTER":100.269,"MEAN_ANOMALY":259.8621,"EPHEMERIS_TYPE":0,"CLASSIFICATION_TYPE":"U","NORAD_CAT_ID":45433,"ELEMENT_SET_NO":999,"REV_AT_EPOCH":28183,"BSTAR":0.0013910501,"MEAN_MOTION_DOT":5.06e-6,"MEAN_MOTION_DDOT":0}]
