ONEWEB-0056             
1 45159U 20008AE  26009.16367381  .00000085  00000+0  20614-3 0  9994
2 45159  87.8779  67.9616 0001821 107.2938 252.8389 13.10370727287352
ONEWEB-0057             
1 45160U 20008AF  26009.17127452 -.00000324  00000+0 -96322-3 0  9997
2 45160  87.8775  67.9724 0002011 100.7761 259.3592 13.10369576287521
ONEWEB-0058             
1 45161U 20008AG  26009.15801852  .00000376  00000+0  10397-2 0  9991
2 45161  87.8774  67.9849 0001502  97.6644 262.4654 13.10370964287591
ONEWEB-0059             
1 45162U 20008AH  26009.23090409  .00001773  00000+0  50408-2 0  9998
2 45162  87.8773  67.9710 0001674  99.8239 260.3077 13.10378673287504
ONEWEB-0062             
1 45163U 20008AJ  26009.10390791 -.00000587  00000+0 -17179-2 0  9994
2 45163  87.8786  67.9737 0001326  98.3097 261.8181 13.10372117287350
ONEWEB-0065             
1 45164U 20008AK  26009.21084872  .00000383  00000+0  10610-2 0  9992
2 45164  87.8782  67.9661 0002115 105.6112 254.5249 13.10375139287069
ONEWEB-0066             
1 45424U 20020A   26009.14422414 -.00001746  00000+0 -49648-2 0  9994
2 45424  87.8838  52.7283 0001984  91.9451 268.1904 13.11408740281832
ONEWEB-0067             
1 45425U 20020B   26009.10538207  .00000545  00000+0  15026-2 0  9996
2 45425  87.8840  52.6406 0001992  95.5627 264.5728 13.11416657281881
ONEWEB-0080             
1 45426U 20020C   26009.11456981  .00000352  00000+0  95781-3 0  9999
2 45426  87.8829  52.7337 0001554  89.3643 270.7663 13.11415737281858
ONEWEB-0090             
1 45427U 20020D   26009.13418959 -.00000366  00000+0 -10685-2 0  9991
2 45427  87.8830  52.7318 0001760  97.7206 262.4122 13.11415544281828
ONEWEB-0061             
1 45428U 20020E   26009.16613177  .00000206  00000+0  54514-3 0  9995
2 45428  87.8838  52.7078 0001779  96.2567 263.8764 13.11418866281786
ONEWEB-0081             
1 45429U 20020F   26009.14760321 -.00000697  00000+0 -20022-2 0  9990
2 45429  87.8836  52.7270 0001955  92.5908 267.5444 13.11418063281890
ONEWEB-0069             
1 45430U 20020G   26009.13658505 -.00000519  00000+0 -14998-2 0  9999
2 45430  87.8832  52.7253 0001828  95.6521 264.4816 13.11416836281821
ONEWEB-0031             
1 45431U 20020H   26009.10862932  .00000548  00000+0  15094-2 0  9996
2 45431  87.8825  52.7528 0001577  98.0583 262.0724 13.11416401281803
ONEWEB-0027             
1 45432U 20020J   26009.29553934 -.00000002  00000+0 -37074-4 0  9997
2 45432  87.9095  37.4244 0001541 105.6341 254.4961 13.17649003285430
ONEWEB-0064             
1 45433U 20020K   26009.10693492  .00000506  00000+0  13911-2 0  9991
2 45433  87.8826  52.7431 0001629 100.2690 259.8621 13.11416838281839
